OSCAR 7 (AO-7)          
1 07530U 74089B   26188.51478832 -.00000046  00000+0  49488-5 0  9994
2 07530 101.9901 201.9731 0012664  92.5590  74.3678 12.53698425363068
PHASE 3B (AO-10)        
1 14129U 83058B   26187.30639496  .00000240  00000+0  00000+0 0  9999
2 14129  25.9287 216.4111 6004451 120.9204 311.3694  2.05868973295883
UOSAT 2 (UO-11)         
1 14781U 84021B   26188.35711644  .00001031  00000+0  11037-3 0  9991
2 14781  97.8070 153.7082 0009095 112.8579 247.3601 14.90835514260131
LUSAT (LO-19)           
1 20442U 90005G   26188.48462288  .00000077  00000+0  44156-4 0  9990
2 20442  98.8845 210.8490 0012233 142.4411 217.7630 14.34129180905304
EYESAT A (AO-27)        
1 22825U 93061C   26188.76721503  .00000059  00000+0  39561-4 0  9995
2 22825  98.6871 256.1724 0009140  46.1655 314.0282 14.30947768709946
ITAMSAT (IO-26)         
1 22826U 93061D   26188.74048494  .00000065  00000+0  41184-4 0  9996
2 22826  98.6819 256.0652 0009383  30.3812 329.7913 14.31375237710254
RADIO ROSTO (RS15)      
1 23439U 94085A   26188.69185014 -.00000037  00000+0  16351-3 0  9995
2 23439  64.8165 270.0555 0156645   0.0918   0.0010 11.27583446298216
JAS-2 (FO-29)           
1 24278U 96046B   26188.79062142 -.00000010  00000+0  24150-4 0  9991
2 24278  98.5224  34.8386 0350647  43.1200 319.6844 13.53275077475957
TECHSAT 1B (GO-32)      
1 25397U 98043D   26187.94313305  .00000041  00000+0  37960-4 0  9995
2 25397  99.0077 181.2008 0001942 128.2186 231.9167 14.24432204454147
ISS (ZARYA)             
1 25544U 98067A   26188.50835634  .00005806  00000+0  11369-3 0  9990
2 25544  51.6304 199.5144 0006687 267.6545  92.3678 15.48933372574901
PCSAT (NO-44)           
1 26931U 01043C   26187.71597949  .00000106  00000+0  70598-4 0  9993
2 26931  67.0487 193.7609 0005988 265.9645  94.0772 14.31962724293245
SAUDISAT 1C (SO-50)     
1 27607U 02058C   26188.78930017  .00000682  00000+0  98050-4 0  9998
2 27607  64.5519  65.2417 0074738 258.6284 100.6419 14.83089167267512
CUTE-1 (CO-55)          
1 27844U 03031E   26188.47926414  .00000234  00000+0  12008-3 0  9996
2 27844  98.6738 196.7829 0010633 122.6531 237.5676 14.24348198194568
CUBESAT XI-IV (CO-57)   
1 27848U 03031J   26188.47791579  .00000195  00000+0  10456-3 0  9993
2 27848  98.6771 196.4779 0010210 139.6848 220.5090 14.23631593194262
MOZHAETS 4 (RS22)       
1 27939U 03042A   26188.86521019  .00000986  00000+0  15996-3 0  9991
2 27939  98.3479  13.8090 0010646 197.1198 273.8580 14.73507176218595
CUBESAT XI-V            
1 28895U 05043F   26187.90288029  .00001301  00000+0  21205-3 0  9993
2 28895  98.3006 343.9413 0014933 139.5987 220.6332 14.72686848104657
CUTE-1.7+APD II (CO-65) 
1 32785U 08021C   26188.79755797  .00002899  00000+0  18422-3 0  9994
2 32785  97.8287 170.6484 0007526 329.8758  30.2036 15.09655904988306
SEEDS II (CO-66)        
1 32791U 08021J   26187.97759589  .00013488  00000+0  41928-3 0  9996
2 32791  97.7526 186.8299 0002094 175.3299 184.7963 15.33467667990323
YUBILEINY (RS30)        
1 32953U 08025A   26188.86180338  .00000100  00000+0  65067-3 0  9996
2 32953  82.5059 342.5781 0018514 266.0162  93.8801 12.43180588822264
KKS-1 (KISEKI)          
1 33499U 09002H   26188.76597752  .00001110  00000+0  14285-3 0  9997
2 33499  98.1179 111.5343 0006844 215.3247 144.7513 14.83177123939248
SWISSCUBE               
1 35932U 09051B   26188.69362618  .00000823  00000+0  17197-3 0  9993
2 35932  98.4017  96.9380 0007441 139.4593 220.7163 14.62521314892153
BEESAT-1                
1 35933U 09051C   26188.71376992  .00000676  00000+0  14545-3 0  9997
2 35933  98.3945  96.5507 0005671 149.9217 210.2310 14.61753962892188
ITUPSAT1                
1 35935U 09051E   26188.72265193  .00000618  00000+0  13755-3 0  9998
2 35935  98.4027  95.7297 0007547 164.8857 195.2569 14.60471459891734
XIWANG-1 (HOPE-1)       
1 36122U 09072B   26188.83964259  .00000455  00000+0  13089-2 0  9999
2 36122 100.4035 142.3426 0007318 181.4555 178.6538 13.16441510795723
O/OREOS (USA 219)       
1 37224U 10062C   26188.68827941  .00001505  00000+0  14746-3 0  9992
2 37224  71.9709  33.8970 0013508  19.9094 340.2601 14.93832571119709
JUGNU                   
1 37839U 11058B   26188.05385067  .00000388  00000+0  62949-4 0  9996
2 37839  19.9587 187.7288 0018355 296.0601 101.0732 14.13781645761848
SRMSAT                  
1 37841U 11058D   26188.51395409  .00000364  00000+0  53720-4 0  9992
2 37841  19.9725 296.4406 0011878  67.5382  21.1361 14.11579854760692
STRAND-1                
1 39090U 13009E   26188.45511461  .00000234  00000+0  93038-4 0  9991
2 39090  98.3931   8.1913 0008963 162.7350 197.4144 14.37175624699978
ZACUBE-1 (TSHEPISOSAT)  
1 39417U 13066B   26188.46989733  .00001831  00000+0  14444-3 0  9996
2 39417  97.8022 150.9081 0043509 179.9834 180.1399 15.01305441683776
GOMX-1                  
1 39430U 13066Q   26188.81761498  .00001429  00000+0  21972-3 0  9993
2 39430  97.6476  27.9782 0128957  11.8892 348.5309 14.69531126672944
