OBJECT_NAME,OBJECT_ID,EPOCH,MEAN_MOTION,ECCENTRICITY,INCLINATION,RA_OF_ASC_NODE,ARG_OF_PERICENTER,MEAN_ANOMALY,EPHEMERIS_TYPE,CLASSIFICATION_TYPE,NORAD_CAT_ID,ELEMENT_SET_NO,REV_AT_EPOCH,BSTAR,MEAN_MOTION_DOT,MEAN_MOTION_DDOT
OSCAR 7 (AO-7),1974-089B,2026-07-07T12:21:17.710848,12.53698425,.00126647,101.9901,201.9731,92.5590,74.3678,0,U,7530,999,36306,.4948808E-5,-.46E-6,0
PHASE 3B (AO-10),1983-058B,2026-07-06T07:21:12.524544,2.05868973,.6004451,25.9287,216.4111,120.9204,311.3694,0,U,14129,999,29588,0,.24E-5,0
UOSAT 2 (UO-11),1984-021B,2026-07-07T08:34:14.860416,14.90835514,.0009095,97.8070,153.7082,112.8579,247.3601,0,U,14781,999,26013,.11036764E-3,.1031E-4,0
LUSAT (LO-19),1990-005G,2026-07-07T11:37:51.416832,14.34129180,.00122332,98.8845,210.8490,142.4411,217.7630,0,U,20442,999,90530,.44156222E-4,.77E-6,0
EYESAT A (AO-27),1993-061C,2026-07-07T18:24:47.378592,14.30947768,.000914,98.6871,256.1724,46.1655,314.0282,0,U,22825,999,70994,.39561E-4,.59E-6,0
ITAMSAT (IO-26),1993-061D,2026-07-07T17:46:17.898816,14.31375237,.0009383,98.6819,256.0652,30.3812,329.7913,0,U,22826,999,71025,.41184E-4,.65E-6,0
RADIO ROSTO (RS15),1994-085A,2026-07-07T16:36:15.852096,11.27583446,.0156645,64.8165,270.0555,0.0918,0.0010,0,U,23439,999,29821,.16351E-3,-.37E-6,0
JAS-2 (FO-29),1996-046B,2026-07-07T18:58:29.690688,13.53275077,.0350647,98.5224,34.8386,43.1200,319.6844,0,U,24278,999,47595,.2415E-4,-.1E-6,0
TECHSAT 1B (GO-32),1998-043D,2026-07-06T22:38:06.695520,14.24432204,.00019427,99.0077,181.2008,128.2186,231.9167,0,U,25397,999,45414,.37960253E-4,.41E-6,0
ISS (ZARYA),1998-067A,2026-07-07T12:12:01.987776,15.48933372,.00066874,51.6304,199.5144,267.6545,92.3678,0,U,25544,999,57490,.11369272E-3,.5806E-4,0
PCSAT (NO-44),2001-043C,2026-07-06T17:11:00.627936,14.31962724,.00059887,67.0487,193.7609,265.9645,94.0772,0,U,26931,999,29324,.7059757E-4,.106E-5,0
SAUDISAT 1C (SO-50),2002-058C,2026-07-07T18:56:35.534688,14.83089167,.0074738,64.5519,65.2417,258.6284,100.6419,0,U,27607,999,26751,.9805E-4,.682E-5,0
CUTE-1 (CO-55),2003-031E,2026-07-07T11:30:08.421696,14.24348198,.00106334,98.6738,196.7829,122.6531,237.5676,0,U,27844,999,19456,.12007954E-3,.234E-5,0
CUBESAT XI-IV (CO-57),2003-031J,2026-07-07T11:28:11.924256,14.23631593,.00102102,98.6771,196.4779,139.6848,220.5090,0,U,27848,999,19426,.1045566E-3,.195E-5,0
MOZHAETS 4 (RS22),2003-042A,2026-07-07T20:45:54.160416,14.73507176,.0010646,98.3479,13.8090,197.1198,273.8580,0,U,27939,999,21859,.15996E-3,.986E-5,0
CUBESAT XI-V,2005-043F,2026-07-06T21:40:08.857056,14.72686848,.00149336,98.3006,343.9413,139.5987,220.6332,0,U,28895,999,10465,.21205115E-3,.1301E-4,0
CUTE-1.7+APD II (CO-65),2008-021C,2026-07-07T19:08:29.008608,15.09655904,.0007526,97.8287,170.6484,329.8758,30.2036,0,U,32785,999,98830,.18422E-3,.2899E-4,0
SEEDS II (CO-66),2008-021J,2026-07-06T23:27:44.284896,15.33467667,.00020947,97.7526,186.8299,175.3299,184.7963,0,U,32791,999,99032,.41927709E-3,.13488E-3,0
YUBILEINY (RS30),2008-025A,2026-07-07T20:40:59.812032,12.43180588,.0018514,82.5059,342.5781,266.0162,93.8801,0,U,32953,999,82226,.65067E-3,.1E-5,0
KKS-1 (KISEKI),2009-002H,2026-07-07T18:23:00.457728,14.83177123,.0006844,98.1179,111.5343,215.3247,144.7513,0,U,33499,999,93924,.14285E-3,.111E-4,0
SWISSCUBE,2009-051B,2026-07-07T16:38:49.301952,14.62521314,.0007441,98.4017,96.9380,139.4593,220.7163,0,U,35932,999,89215,.17197E-3,.823E-5,0
BEESAT-1,2009-051C,2026-07-07T17:07:49.721088,14.61753962,.0005671,98.3945,96.5507,149.9217,210.2310,0,U,35933,999,89218,.14545E-3,.676E-5,0
ITUPSAT1,2009-051E,2026-07-07T17:20:37.126752,14.60471459,.0007547,98.4027,95.7297,164.8857,195.2569,0,U,35935,999,89173,.13755E-3,.618E-5,0
XIWANG-1 (HOPE-1),2009-072B,2026-07-07T20:09:05.119776,13.16441510,.0007318,100.4035,142.3426,181.4555,178.6538,0,U,36122,999,79572,.13089E-2,.455E-5,0
O/OREOS (USA 219),2010-062C,2026-07-07T16:31:07.341024,14.93832571,.0013508,71.9709,33.8970,19.9094,340.2601,0,U,37224,999,11970,.14746E-3,.1505E-4,0
JUGNU,2011-058B,2026-07-07T01:17:32.697888,14.13781645,.00183556,19.9587,187.7288,296.0601,101.0732,0,U,37839,999,76184,.6294923E-4,.388E-5,0
SRMSAT,2011-058D,2026-07-07T12:20:05.633376,14.11579854,.00118785,19.9725,296.4406,67.5382,21.1361,0,U,37841,999,76069,.53719828E-4,.364E-5,0
STRAND-1,2013-009E,2026-07-07T10:55:21.902304,14.37175624,.0008963,98.3931,8.1913,162.7350,197.4144,0,U,39090,999,69997,.93038286E-4,.234E-5,0
ZACUBE-1 (TSHEPISOSAT),2013-066B,2026-07-07T11:16:39.129312,15.01305441,.00435096,97.8022,150.9081,179.9834,180.1399,0,U,39417,999,68377,.14443632E-3,.1831E-4,0
GOMX-1,2013-066Q,2026-07-07T19:37:21.934272,14.69531126,.0128957,97.6476,27.9782,11.8892,348.5309,0,U,39430,999,67294,.21972E-3,.1429E-4,0
